[
    {
        "OBJECT_NAME": "ONEWEB-0549",
        "OBJECT_ID": "2023-043F",
        "EPOCH": "2025-12-06T21:31:34.377888",
        "MEAN_MOTION": 13.21824756,
        "ECCENTRICITY": 0.00019164,
        "INCLINATION": 87.9211,
        "RA_OF_ASC_NODE": 282.3402,
        "ARG_OF_PERICENTER": 67.3704,
        "MEAN_ANOMALY": 292.7633,
        "EPHEMERIS_TYPE": 0,
        "CLASSIFICATION_TYPE": "U",
        "NORAD_CAT_ID": 56051,
        "ELEMENT_SET_NO": 999,
        "REV_AT_EPOCH": 13282,
        "BSTAR": -4.0201801e-05,
        "MEAN_MOTION_DOT": -4e-08,
        "MEAN_MOTION_DDOT": 0
    },
    {
        "OBJECT_NAME": "ONEWEB-0550",
        "OBJECT_ID": "2023-043G",
        "EPOCH": "2025-12-06T21:12:35.955072",
        "MEAN_MOTION": 13.21820455,
        "ECCENTRICITY": 0.00017591,
        "INCLINATION": 87.9211,
        "RA_OF_ASC_NODE": 282.3381,
        "ARG_OF_PERICENTER": 81.0704,
        "MEAN_ANOMALY": 279.0629,
        "EPHEMERIS_TYPE": 0,
        "CLASSIFICATION_TYPE": "U",
        "NORAD_CAT_ID": 56052,
        "ELEMENT_SET_NO": 999,
        "REV_AT_EPOCH": 13282,
        "BSTAR": -8.805108e-06,
        "MEAN_MOTION_DOT": 9e-08,
        "MEAN_MOTION_DDOT": 0
    },
    {
        "OBJECT_NAME": "ONEWEB-0551",
        "OBJECT_ID": "2023-043H",
        "EPOCH": "2025-12-06T21:10:31.925280",
        "MEAN_MOTION": 13.15548759,
        "ECCENTRICITY": 0.00019471,
        "INCLINATION": 87.8984,
        "RA_OF_ASC_NODE": 297.6057,
        "ARG_OF_PERICENTER": 75.0829,
        "MEAN_ANOMALY": 285.0517,
        "EPHEMERIS_TYPE": 0,
        "CLASSIFICATION_TYPE": "U",
        "NORAD_CAT_ID": 56053,
        "ELEMENT_SET_NO": 999,
        "REV_AT_EPOCH": 13111,
        "BSTAR": 0.00028606439,
        "MEAN_MOTION_DOT": 1.21e-06,
        "MEAN_MOTION_DDOT": 0
    },
    {
        "OBJECT_NAME": "ONEWEB-0552",
        "OBJECT_ID": "2023-043J",
        "EPOCH": "2025-12-06T21:05:30.721056",
        "MEAN_MOTION": 13.21825646,
        "ECCENTRICITY": 0.00020533,
        "INCLINATION": 87.9211,
        "RA_OF_ASC_NODE": 282.3479,
        "ARG_OF_PERICENTER": 76.3683,
        "MEAN_ANOMALY": 283.768,
        "EPHEMERIS_TYPE": 0,
        "CLASSIFICATION_TYPE": "U",
        "NORAD_CAT_ID": 56054,
        "ELEMENT_SET_NO": 999,
        "REV_AT_EPOCH": 13282,
        "BSTAR": 0.00020880339,
        "MEAN_MOTION_DOT": 9.9e-07,
        "MEAN_MOTION_DDOT": 0
    },
    {
        "OBJECT_NAME": "ONEWEB-0553",
        "OBJECT_ID": "2023-043K",
        "EPOCH": "2025-12-06T20:00:24.922656",
        "MEAN_MOTION": 13.16595531,
        "ECCENTRICITY": 0.00014312,
        "INCLINATION": 87.9042,
        "RA_OF_ASC_NODE": 267.0763,
        "ARG_OF_PERICENTER": 79.8191,
        "MEAN_ANOMALY": 280.3101,
        "EPHEMERIS_TYPE": 0,
        "CLASSIFICATION_TYPE": "U",
        "NORAD_CAT_ID": 56055,
        "ELEMENT_SET_NO": 999,
        "REV_AT_EPOCH": 13366,
        "BSTAR": -0.00010391546,
        "MEAN_MOTION_DOT": -2.7e-07,
        "MEAN_MOTION_DDOT": 0
    },
    {
        "OBJECT_NAME": "ONEWEB-0554",
        "OBJECT_ID": "2023-043L",
        "EPOCH": "2025-12-06T19:42:10.422144",
        "MEAN_MOTION": 13.16596783,
        "ECCENTRICITY": 0.00018197,
        "INCLINATION": 87.903,
        "RA_OF_ASC_NODE": 267.0935,
        "ARG_OF_PERICENTER": 84.0089,
        "MEAN_ANOMALY": 276.1249,
        "EPHEMERIS_TYPE": 0,
        "CLASSIFICATION_TYPE": "U",
        "NORAD_CAT_ID": 56056,
        "ELEMENT_SET_NO": 999,
        "REV_AT_EPOCH": 13364,
        "BSTAR": -0.00015483704,
        "MEAN_MOTION_DOT": -4.6e-07,
        "MEAN_MOTION_DDOT": 0
    },
    {
        "OBJECT_NAME": "ONEWEB-0555",
        "OBJECT_ID": "2023-043M",
        "EPOCH": "2025-12-06T20:36:54.168192",
        "MEAN_MOTION": 13.16594472,
        "ECCENTRICITY": 0.00012073,
        "INCLINATION": 87.9041,
        "RA_OF_ASC_NODE": 267.0661,
        "ARG_OF_PERICENTER": 80.8124,
        "MEAN_ANOMALY": 279.3143,
        "EPHEMERIS_TYPE": 0,
        "CLASSIFICATION_TYPE": "U",
        "NORAD_CAT_ID": 56057,
        "ELEMENT_SET_NO": 999,
        "REV_AT_EPOCH": 13365,
        "BSTAR": 0.0001036549,
        "MEAN_MOTION_DOT": 5.2e-07,
        "MEAN_MOTION_DDOT": 0
    },
    {
        "OBJECT_NAME": "ONEWEB-0557",
        "OBJECT_ID": "2023-043N",
        "EPOCH": "2025-12-06T19:07:58.611360",
        "MEAN_MOTION": 13.16595935,
        "ECCENTRICITY": 0.00017074,
        "INCLINATION": 87.9037,
        "RA_OF_ASC_NODE": 267.0914,
        "ARG_OF_PERICENTER": 120.465,
        "MEAN_ANOMALY": 239.665,
        "EPHEMERIS_TYPE": 0,
        "CLASSIFICATION_TYPE": "U",
        "NORAD_CAT_ID": 56058,
        "ELEMENT_SET_NO": 999,
        "REV_AT_EPOCH": 13364,
        "BSTAR": 1.0222503e-05,
        "MEAN_MOTION_DOT": 1.7e-07,
        "MEAN_MOTION_DDOT": 0
    },
    {
        "OBJECT_NAME": "ONEWEB-0558",
        "OBJECT_ID": "2023-043P",
        "EPOCH": "2025-12-06T20:56:00.584736",
        "MEAN_MOTION": 13.21827174,
        "ECCENTRICITY": 0.00020352,
        "INCLINATION": 87.921,
        "RA_OF_ASC_NODE": 282.3432,
        "ARG_OF_PERICENTER": 63.0724,
        "MEAN_ANOMALY": 297.0617,
        "EPHEMERIS_TYPE": 0,
        "CLASSIFICATION_TYPE": "U",
        "NORAD_CAT_ID": 56059,
        "ELEMENT_SET_NO": 999,
        "REV_AT_EPOCH": 13283,
        "BSTAR": 0.00032547033,
        "MEAN_MOTION_DOT": 1.47e-06,
        "MEAN_MOTION_DDOT": 0
    },
    {
        "OBJECT_NAME": "ONEWEB-0559",
        "OBJECT_ID": "2023-043Q",
        "EPOCH": "2025-12-06T20:39:24.732288",
        "MEAN_MOTION": 13.21836652,
        "ECCENTRICITY": 0.00021477,
        "INCLINATION": 87.9213,
        "RA_OF_ASC_NODE": 282.3379,
        "ARG_OF_PERICENTER": 74.6691,
        "MEAN_ANOMALY": 285.468,
        "EPHEMERIS_TYPE": 0,
        "CLASSIFICATION_TYPE": "U",
        "NORAD_CAT_ID": 56060,
        "ELEMENT_SET_NO": 999,
        "REV_AT_EPOCH": 13284,
        "BSTAR": 0.0019309192,
        "MEAN_MOTION_DOT": 8.11e-06,
        "MEAN_MOTION_DDOT": 0
    },
    {
        "OBJECT_NAME": "ONEWEB-0566",
        "OBJECT_ID": "2023-043R",
        "EPOCH": "2025-12-06T20:29:56.957280",
        "MEAN_MOTION": 13.21824544,
        "ECCENTRICITY": 0.00020429,
        "INCLINATION": 87.9211,
        "RA_OF_ASC_NODE": 282.3375,
        "ARG_OF_PERICENTER": 70.3704,
        "MEAN_ANOMALY": 289.765,
        "EPHEMERIS_TYPE": 0,
        "CLASSIFICATION_TYPE": "U",
        "NORAD_CAT_ID": 56061,
        "ELEMENT_SET_NO": 999,
        "REV_AT_EPOCH": 13282,
        "BSTAR": 0.00011706202,
        "MEAN_MOTION_DOT": 6.1e-07,
        "MEAN_MOTION_DDOT": 0
    },
    {
        "OBJECT_NAME": "ONEWEB-0568",
        "OBJECT_ID": "2023-043S",
        "EPOCH": "2025-12-06T19:33:03.732192",
        "MEAN_MOTION": 13.1659469,
        "ECCENTRICITY": 0.00014452,
        "INCLINATION": 87.9045,
        "RA_OF_ASC_NODE": 267.0749,
        "ARG_OF_PERICENTER": 75.9852,
        "MEAN_ANOMALY": 284.1439,
        "EPHEMERIS_TYPE": 0,
        "CLASSIFICATION_TYPE": "U",
        "NORAD_CAT_ID": 56062,
        "ELEMENT_SET_NO": 999,
        "REV_AT_EPOCH": 13366,
        "BSTAR": -0.00018349028,
        "MEAN_MOTION_DOT": -5.7e-07,
        "MEAN_MOTION_DDOT": 0
    },
    {
        "OBJECT_NAME": "ONEWEB-0574",
        "OBJECT_ID": "2023-043T",
        "EPOCH": "2025-12-06T20:20:29.101920",
        "MEAN_MOTION": 13.21824934,
        "ECCENTRICITY": 0.00018238,
        "INCLINATION": 87.921,
        "RA_OF_ASC_NODE": 282.3268,
        "ARG_OF_PERICENTER": 83.5854,
        "MEAN_ANOMALY": 276.5488,
        "EPHEMERIS_TYPE": 0,
        "CLASSIFICATION_TYPE": "U",
        "NORAD_CAT_ID": 56063,
        "ELEMENT_SET_NO": 999,
        "REV_AT_EPOCH": 13286,
        "BSTAR": 7.937473e-05,
        "MEAN_MOTION_DOT": 4.6e-07,
        "MEAN_MOTION_DDOT": 0
    }
]