[{"norad_id":"56051","company":"ONEWEB","tle_line2":"2 56051  87.9211 282.3402 0001916  67.3704 292.7633 13.21824756132829","launch_date":"2023-03-26","type":"LEO","tle_line1":"1 56051U 23043F   25340.89692567 -.00000004  00000+0 -40202-4 0  9992","satellite_name":"ONEWEB-0549"},{"norad_id":"56052","company":"ONEWEB","tle_line2":"2 56052  87.9211 282.3381 0001759  81.0704 279.0629 13.21820455132829","launch_date":"2023-03-26","type":"LEO","tle_line1":"1 56052U 23043G   25340.88374948  .00000009  00000+0 -88051-5 0  9991","satellite_name":"ONEWEB-0550"},{"norad_id":"56053","company":"ONEWEB","tle_line2":"2 56053  87.8984 297.6057 0001947  75.0829 285.0517 13.15548759131116","launch_date":"2023-03-26","type":"LEO","tle_line1":"1 56053U 23043H   25340.88231395  .00000121  00000+0  28606-3 0  9992","satellite_name":"ONEWEB-0551"},{"norad_id":"56054","company":"ONEWEB","tle_line2":"2 56054  87.9211 282.3479 0002053  76.3683 283.7680 13.21825646132826","launch_date":"2023-03-26","type":"LEO","tle_line1":"1 56054U 23043J   25340.87882779  .00000099  00000+0  20880-3 0  9990","satellite_name":"ONEWEB-0552"},{"norad_id":"56055","company":"ONEWEB","tle_line2":"2 56055  87.9042 267.0763 0001431  79.8191 280.3101 13.16595531133661","launch_date":"2023-03-26","type":"LEO","tle_line1":"1 56055U 23043K   25340.83362179 -.00000027  00000+0 -10392-3 0  9994","satellite_name":"ONEWEB-0553"},{"norad_id":"56056","company":"ONEWEB","tle_line2":"2 56056  87.9030 267.0935 0001819  84.0089 276.1249 13.16596783133648","launch_date":"2023-03-26","type":"LEO","tle_line1":"1 56056U 23043L   25340.82095396 -.00000046  00000+0 -15484-3 0  9996","satellite_name":"ONEWEB-0554"},{"norad_id":"56057","company":"ONEWEB","tle_line2":"2 56057  87.9041 267.0661 0001207  80.8124 279.3143 13.16594472133654","launch_date":"2023-03-26","type":"LEO","tle_line1":"1 56057U 23043M   25340.85896028  .00000052  00000+0  10365-3 0  9999","satellite_name":"ONEWEB-0555"},{"norad_id":"56058","company":"ONEWEB","tle_line2":"2 56058  87.9037 267.0914 0001707 120.4650 239.6650 13.16595935133647","launch_date":"2023-03-26","type":"LEO","tle_line1":"1 56058U 23043N   25340.79720615  .00000017  00000+0  10223-4 0  9996","satellite_name":"ONEWEB-0557"},{"norad_id":"56059","company":"ONEWEB","tle_line2":"2 56059  87.9210 282.3432 0002035  63.0724 297.0617 13.21827174132835","launch_date":"2023-03-26","type":"LEO","tle_line1":"1 56059U 23043P   25340.87222899  .00000147  00000+0  32547-3 0  9993","satellite_name":"ONEWEB-0558"},{"norad_id":"56060","company":"ONEWEB","tle_line2":"2 56060  87.9213 282.3379 0002147  74.6691 285.4680 13.21836652132848","launch_date":"2023-03-26","type":"LEO","tle_line1":"1 56060U 23043Q   25340.86070292  .00000811  00000+0  19309-2 0  9990","satellite_name":"ONEWEB-0559"},{"norad_id":"56061","company":"ONEWEB","tle_line2":"2 56061  87.9211 282.3375 0002042  70.3704 289.7650 13.21824544132824","launch_date":"2023-03-26","type":"LEO","tle_line1":"1 56061U 23043R   25340.85413145  .00000061  00000+0  11706-3 0  9999","satellite_name":"ONEWEB-0566"},{"norad_id":"56062","company":"ONEWEB","tle_line2":"2 56062  87.9045 267.0749 0001445  75.9852 284.1439 13.16594690133663","launch_date":"2023-03-26","type":"LEO","tle_line1":"1 56062U 23043S   25340.81462653 -.00000057  00000+0 -18349-3 0  9991","satellite_name":"ONEWEB-0568"},{"norad_id":"56063","company":"ONEWEB","tle_line2":"2 56063  87.9210 282.3268 0001823  83.5854 276.5488 13.21824934132864","launch_date":"2023-03-26","type":"LEO","tle_line1":"1 56063U 23043T   25340.84755905  .00000046  00000+0  79375-4 0  9993","satellite_name":"ONEWEB-0574"}]